CCSDS_OMM_VERS = 2.0
CREATION_DATE  = 
ORIGINATOR     = 

OBJECT_NAME    = STARLINK-36545
OBJECT_ID      = 2026-012N
CENTER_NAME    = EARTH
REF_FRAME      = TEME
TIME_SYSTEM    = UTC
MEAN_ELEMENT_THEORY = SGP/SGP4

EPOCH          = 2026-02-09T14:00:01.000224
MEAN_MOTION    = 15.59762222
ECCENTRICITY   = .00011247
INCLINATION    = 42.9994
RA_OF_ASC_NODE = 114.1911
ARG_OF_PERICENTER = 271.7925
MEAN_ANOMALY   = 357.1360

EPHEMERIS_TYPE = 0
CLASSIFICATION_TYPE = U
NORAD_CAT_ID   = 67505
ELEMENT_SET_NO = 999
REV_AT_EPOCH   = 455
BSTAR          = -.25681746E-1
MEAN_MOTION_DOT = -.1872037E-1
MEAN_MOTION_DDOT = 0

CCSDS_OMM_VERS = 2.0
CREATION_DATE  = 
ORIGINATOR     = 

OBJECT_NAME    = STARLINK-36553
OBJECT_ID      = 2026-012P
CENTER_NAME    = EARTH
REF_FRAME      = TEME
TIME_SYSTEM    = UTC
MEAN_ELEMENT_THEORY = SGP/SGP4

EPOCH          = 2026-02-09T14:00:01.000224
MEAN_MOTION    = 15.61115129
ECCENTRICITY   = .0001342
INCLINATION    = 43.0000
RA_OF_ASC_NODE = 114.1170
ARG_OF_PERICENTER = 276.8291
MEAN_ANOMALY   = 21.4838

EPHEMERIS_TYPE = 0
CLASSIFICATION_TYPE = U
NORAD_CAT_ID   = 67506
ELEMENT_SET_NO = 999
REV_AT_EPOCH   = 455
BSTAR          = -.24475643E-1
MEAN_MOTION_DOT = -.1879547E-1
MEAN_MOTION_DDOT = 0

CCSDS_OMM_VERS = 2.0
CREATION_DATE  = 
ORIGINATOR     = 

OBJECT_NAME    = STARLINK-36521
OBJECT_ID      = 2026-012Q
CENTER_NAME    = EARTH
REF_FRAME      = TEME
TIME_SYSTEM    = UTC
MEAN_ELEMENT_THEORY = SGP/SGP4

EPOCH          = 2026-02-09T14:00:01.000224
MEAN_MOTION    = 15.61070789
ECCENTRICITY   = .00013852
INCLINATION    = 43.0000
RA_OF_ASC_NODE = 114.1057
ARG_OF_PERICENTER = 278.4492
MEAN_ANOMALY   = 24.4609

EPHEMERIS_TYPE = 0
CLASSIFICATION_TYPE = U
NORAD_CAT_ID   = 67507
ELEMENT_SET_NO = 999
REV_AT_EPOCH   = 455
BSTAR          = -.24585513E-1
MEAN_MOTION_DOT = -.188415E-1
MEAN_MOTION_DDOT = 0

CCSDS_OMM_VERS = 2.0
CREATION_DATE  = 
ORIGINATOR     = 

OBJECT_NAME    = STARLINK-36526
OBJECT_ID      = 2026-012R
CENTER_NAME    = EARTH
REF_FRAME      = TEME
TIME_SYSTEM    = UTC
MEAN_ELEMENT_THEORY = SGP/SGP4

EPOCH          = 2026-02-09T14:00:01.000224
MEAN_MOTION    = 15.61053951
ECCENTRICITY   = .00013432
INCLINATION    = 42.9999
RA_OF_ASC_NODE = 114.0916
ARG_OF_PERICENTER = 276.7384
MEAN_ANOMALY   = 31.5393

EPHEMERIS_TYPE = 0
CLASSIFICATION_TYPE = U
NORAD_CAT_ID   = 67508
ELEMENT_SET_NO = 999
REV_AT_EPOCH   = 455
BSTAR          = -.2461958E-1
MEAN_MOTION_DOT = -.1885335E-1
MEAN_MOTION_DDOT = 0

CCSDS_OMM_VERS = 2.0
CREATION_DATE  = 
ORIGINATOR     = 

OBJECT_NAME    = STARLINK-36541
OBJECT_ID      = 2026-012S
CENTER_NAME    = EARTH
REF_FRAME      = TEME
TIME_SYSTEM    = UTC
MEAN_ELEMENT_THEORY = SGP/SGP4

EPOCH          = 2026-02-09T14:00:01.000224
MEAN_MOTION    = 15.50492317
ECCENTRICITY   = .00003274
INCLINATION    = 43.0007
RA_OF_ASC_NODE = 115.0540
ARG_OF_PERICENTER = 281.7495
MEAN_ANOMALY   = 357.7824

EPHEMERIS_TYPE = 0
CLASSIFICATION_TYPE = U
NORAD_CAT_ID   = 67509
ELEMENT_SET_NO = 999
REV_AT_EPOCH   = 449
BSTAR          = .16752943E-2
MEAN_MOTION_DOT = .98884E-3
MEAN_MOTION_DDOT = 0

CCSDS_OMM_VERS = 2.0
CREATION_DATE  = 
ORIGINATOR     = 

OBJECT_NAME    = STARLINK-36549
OBJECT_ID      = 2026-012T
CENTER_NAME    = EARTH
REF_FRAME      = TEME
TIME_SYSTEM    = UTC
MEAN_ELEMENT_THEORY = SGP/SGP4

EPOCH          = 2026-02-09T14:00:01.000224
MEAN_MOTION    = 15.59507816
ECCENTRICITY   = .00016418
INCLINATION    = 42.9999
RA_OF_ASC_NODE = 113.9351
ARG_OF_PERICENTER = 281.9059
MEAN_ANOMALY   = 87.0091

EPHEMERIS_TYPE = 0
CLASSIFICATION_TYPE = U
NORAD_CAT_ID   = 67510
ELEMENT_SET_NO = 999
REV_AT_EPOCH   = 449
BSTAR          = -.25682421E-1
MEAN_MOTION_DOT = -.1856206E-1
MEAN_MOTION_DDOT = 0

CCSDS_OMM_VERS = 2.0
CREATION_DATE  = 
ORIGINATOR     = 

OBJECT_NAME    = STARLINK-36540
OBJECT_ID      = 2026-012U
CENTER_NAME    = EARTH
REF_FRAME      = TEME
TIME_SYSTEM    = UTC
MEAN_ELEMENT_THEORY = SGP/SGP4

EPOCH          = 2026-02-09T14:00:01.000224
MEAN_MOTION    = 15.50481546
ECCENTRICITY   = .00015991
INCLINATION    = 43.0005
RA_OF_ASC_NODE = 115.0320
ARG_OF_PERICENTER = 284.0386
MEAN_ANOMALY   = 4.7595

EPHEMERIS_TYPE = 0
CLASSIFICATION_TYPE = U
NORAD_CAT_ID   = 67511
ELEMENT_SET_NO = 999
REV_AT_EPOCH   = 455
BSTAR          = .22856251E-2
MEAN_MOTION_DOT = .135621E-2
MEAN_MOTION_DDOT = 0

CCSDS_OMM_VERS = 2.0
CREATION_DATE  = 
ORIGINATOR     = 

OBJECT_NAME    = STARLINK-36538
OBJECT_ID      = 2026-012V
CENTER_NAME    = EARTH
REF_FRAME      = TEME
TIME_SYSTEM    = UTC
MEAN_ELEMENT_THEORY = SGP/SGP4

EPOCH          = 2026-02-09T14:00:01.000224
MEAN_MOTION    = 15.56762419
ECCENTRICITY   = .00010579
INCLINATION    = 42.9996
RA_OF_ASC_NODE = 114.2711
ARG_OF_PERICENTER = 281.1940
MEAN_ANOMALY   = 315.0685

EPHEMERIS_TYPE = 0
CLASSIFICATION_TYPE = U
NORAD_CAT_ID   = 67512
ELEMENT_SET_NO = 999
REV_AT_EPOCH   = 455
BSTAR          = -.28550983E-1
MEAN_MOTION_DOT = -.1857856E-1
MEAN_MOTION_DDOT = 0

CCSDS_OMM_VERS = 2.0
CREATION_DATE  = 
ORIGINATOR     = 

OBJECT_NAME    = STARLINK-36531
OBJECT_ID      = 2026-012W
CENTER_NAME    = EARTH
REF_FRAME      = TEME
TIME_SYSTEM    = UTC
MEAN_ELEMENT_THEORY = SGP/SGP4

EPOCH          = 2026-02-09T14:00:01.000224
MEAN_MOTION    = 15.57642817
ECCENTRICITY   = .00011224
INCLINATION    = 42.9990
RA_OF_ASC_NODE = 114.2136
ARG_OF_PERICENTER = 281.6724
MEAN_ANOMALY   = 337.7945

EPHEMERIS_TYPE = 0
CLASSIFICATION_TYPE = U
NORAD_CAT_ID   = 67513
ELEMENT_SET_NO = 999
REV_AT_EPOCH   = 449
BSTAR          = -.27636569E-1
MEAN_MOTION_DOT = -.185915E-1
MEAN_MOTION_DDOT = 0

CCSDS_OMM_VERS = 2.0
CREATION_DATE  = 
ORIGINATOR     = 

OBJECT_NAME    = STARLINK-36530
OBJECT_ID      = 2026-012X
CENTER_NAME    = EARTH
REF_FRAME      = TEME
TIME_SYSTEM    = UTC
MEAN_ELEMENT_THEORY = SGP/SGP4

EPOCH          = 2026-02-09T14:00:01.000224
MEAN_MOTION    = 15.56693794
ECCENTRICITY   = .00010783
INCLINATION    = 42.9997
RA_OF_ASC_NODE = 114.2492
ARG_OF_PERICENTER = 274.7447
MEAN_ANOMALY   = 330.2272

EPHEMERIS_TYPE = 0
CLASSIFICATION_TYPE = U
NORAD_CAT_ID   = 67514
ELEMENT_SET_NO = 999
REV_AT_EPOCH   = 449
BSTAR          = -.28670629E-1
MEAN_MOTION_DOT = -.1860491E-1
MEAN_MOTION_DDOT = 0

CCSDS_OMM_VERS = 2.0
CREATION_DATE  = 
ORIGINATOR     = 

OBJECT_NAME    = STARLINK-36543
OBJECT_ID      = 2026-012Y
CENTER_NAME    = EARTH
REF_FRAME      = TEME
TIME_SYSTEM    = UTC
MEAN_ELEMENT_THEORY = SGP/SGP4

EPOCH          = 2026-02-09T14:00:01.000224
MEAN_MOTION    = 15.55689453
ECCENTRICITY   = .00011059
INCLINATION    = 42.9993
RA_OF_ASC_NODE = 114.2904
ARG_OF_PERICENTER = 282.5435
MEAN_ANOMALY   = 305.5614

EPHEMERIS_TYPE = 0
CLASSIFICATION_TYPE = U
NORAD_CAT_ID   = 67515
ELEMENT_SET_NO = 999
REV_AT_EPOCH   = 449
BSTAR          = -.29748701E-1
MEAN_MOTION_DOT = -.1859203E-1
MEAN_MOTION_DDOT = 0

CCSDS_OMM_VERS = 2.0
CREATION_DATE  = 
ORIGINATOR     = 

OBJECT_NAME    = STARLINK-36537
OBJECT_ID      = 2026-012Z
CENTER_NAME    = EARTH
REF_FRAME      = TEME
TIME_SYSTEM    = UTC
MEAN_ELEMENT_THEORY = SGP/SGP4

EPOCH          = 2026-02-09T14:00:01.000224
MEAN_MOTION    = 15.57730432
ECCENTRICITY   = .00010639
INCLINATION    = 42.9997
RA_OF_ASC_NODE = 114.1477
ARG_OF_PERICENTER = 276.7975
MEAN_ANOMALY   = 8.5221

EPHEMERIS_TYPE = 0
CLASSIFICATION_TYPE = U
NORAD_CAT_ID   = 67516
ELEMENT_SET_NO = 999
REV_AT_EPOCH   = 449
BSTAR          = -.27513968E-1
MEAN_MOTION_DOT = -.1857276E-1
MEAN_MOTION_DDOT = 0

