STARLINK-36545          
1 67505U 26012N   26040.58334491 -.01872037  00000+0 -25682-1 0  9996
2 67505  42.9994 114.1911 0001124 271.7925 357.1360 15.59762222  4551
STARLINK-36553          
1 67506U 26012P   26040.58334491 -.01879547  00000+0 -24476-1 0  9990
2 67506  43.0000 114.1170 0001342 276.8291  21.4838 15.61115129  4555
STARLINK-36521          
1 67507U 26012Q   26040.58334491 -.01884150  00000+0 -24586-1 0  9999
2 67507  43.0000 114.1057 0001385 278.4492  24.4609 15.61070789  4559
STARLINK-36526          
1 67508U 26012R   26040.58334491 -.01885335  00000+0 -24620-1 0  9995
2 67508  42.9999 114.0916 0001343 276.7384  31.5393 15.61053951  4554
STARLINK-36541          
1 67509U 26012S   26040.58334491  .00098884  00000+0  16753-2 0  9997
2 67509  43.0007 115.0540 0000327 281.7495 357.7824 15.50492317  4497
STARLINK-36549          
1 67510U 26012T   26040.58334491 -.01856206  00000+0 -25682-1 0  9992
2 67510  42.9999 113.9351 0001641 281.9059  87.0091 15.59507816  4491
STARLINK-36540          
1 67511U 26012U   26040.58334491  .00135621  00000+0  22856-2 0  9992
2 67511  43.0005 115.0320 0001599 284.0386   4.7595 15.50481546  4554
STARLINK-36538          
1 67512U 26012V   26040.58334491 -.01857856  00000+0 -28551-1 0  9994
2 67512  42.9996 114.2711 0001057 281.1940 315.0685 15.56762419  4555
STARLINK-36531          
1 67513U 26012W   26040.58334491 -.01859150  00000+0 -27637-1 0  9998
2 67513  42.9990 114.2136 0001122 281.6724 337.7945 15.57642817  4492
STARLINK-36530          
1 67514U 26012X   26040.58334491 -.01860491  00000+0 -28671-1 0  9998
2 67514  42.9997 114.2492 0001078 274.7447 330.2272 15.56693794  4490
STARLINK-36543          
1 67515U 26012Y   26040.58334491 -.01859203  00000+0 -29749-1 0  9995
2 67515  42.9993 114.2904 0001105 282.5435 305.5614 15.55689453  4491
STARLINK-36537          
1 67516U 26012Z   26040.58334491 -.01857276  00000+0 -27514-1 0  9992
2 67516  42.9997 114.1477 0001063 276.7975   8.5221 15.57730432  4497
